MEAN_MOTION;ECCENTRICITY;INCLINATION;RA_OF_ASC_NODE;ARG_OF_PERICENTER;MEAN_ANOMALY;BSTAR;MEAN_MOTION_DOT;MEAN_MOTION_DDOT;TYPE
14.44680714;0.0147212;96.4804;182.5863;102.876;258.8927;9.9889E-6;1.0E-7;0;Amateur
14.44680734;0.0147215;96.4804;182.8509;101.7897;259.9855;9.9019E-6;1.0E-7;0;Amateur
14.44680778;0.014723;96.4804;183.3271;99.8358;261.9497;9.3158E-6;7.0E-8;0;Amateur
14.4468083;0.0147242;96.4804;183.8563;97.6661;264.1285;9.5667E-6;8.0E-8;0;Amateur
14.44680869;0.0147245;96.4804;184.1208;96.5796;265.2186;9.1573E-6;7.0E-8;0;Amateur
14.44680888;0.0147246;96.4804;184.3854;95.4929;266.3082;9.01E-6;6.0E-8;0;Amateur
14.4468096;0.0147254;96.4804;184.8086;93.7562;268.0486;9.5362E-6;8.0E-8;0;Amateur
14.44681001;0.0147253;96.4804;185.2319;92.0205;269.7861;9.7045E-6;9.0E-8;0;Amateur
14.44681147;0.0147262;96.4805;186.2902;87.6806;274.1243;1.0544E-5;1.2E-7;0;Amateur
14.44681209;0.014726;96.4805;187.0839;84.424;277.373;1.0866E-5;1.3E-7;0;Amateur
14.44681216;0.0147259;96.4805;187.1897;83.9893;277.8062;1.1038E-5;1.4E-7;0;Amateur
14.44681329;0.0147225;96.4806;187.9305;80.946;280.8363;1.2849E-5;2.1E-7;0;Amateur
14.44681325;0.0147203;96.4806;188.6713;77.9061;283.8586;1.0611E-5;1.2E-7;0;Amateur
14.44681335;0.0147197;96.4806;188.9359;76.8196;284.9376;1.0752E-5;1.3E-7;0;Amateur
14.44681399;0.0147174;96.4806;189.465;74.649;287.0915;1.0702E-5;1.3E-7;0;Amateur
14.4468143;0.0147165;96.4806;189.7296;73.5579;288.1733;1.0897E-5;1.3E-7;0;Amateur
14.44681514;0.0147149;96.4806;190.2586;71.382;290.3291;1.1673E-5;1.6E-7;0;Amateur
14.44681577;0.0147126;96.4806;190.6819;69.6466;292.0468;1.1777E-5;1.7E-7;0;Amateur
14.44681632;0.0147111;96.4806;190.9994;68.3409;293.3381;1.1992E-5;1.8E-7;0;Amateur
14.44681696;0.0147091;96.4807;191.4756;66.3853;295.2709;1.2111E-5;1.8E-7;0;Amateur
14.44681708;0.014709;96.4807;191.5285;66.1677;295.4859;1.2301E-5;1.9E-7;0;Amateur
14.44681743;0.0147076;96.4807;191.793;65.0792;296.5607;1.2366E-5;1.9E-7;0;Amateur
14.44681763;0.0147049;96.4807;192.2692;63.1267;298.4873;9.9894E-6;9.0E-8;0;Amateur
14.44681777;0.0147038;96.4807;192.4279;62.4741;299.1309;8.9544E-6;5.0E-8;0;Amateur
14.44681762;0.0147034;96.4807;192.5338;62.0393;299.5596;8.0648E-6;2.0E-8;0;Amateur
14.44681806;0.0146998;96.4807;193.0629;59.8659;301.7012;7.9513E-6;1.0E-8;0;Amateur
14.44681813;0.0146981;96.4807;193.3274;58.7778;302.7727;7.2257E-6;-2.0E-8;0;Amateur
14.44681826;0.014693;96.4807;194.0682;55.7335;305.7676;4.9661E-6;-1.1E-7;0;Amateur
14.4468184;0.0146913;96.4807;194.2798;54.8622;306.624;5.2516E-6;-9.0E-8;0;Amateur
14.44681889;0.0146872;96.4808;194.8619;52.4687;308.9751;5.3691E-6;-9.0E-8;0;Amateur
14.44681922;0.0146851;96.4808;195.0735;51.5965;309.8313;6.2401E-6;-6.0E-8;0;Amateur
14.44681964;0.0146812;96.4808;195.6027;49.4199;311.9667;6.6574E-6;-4.0E-8;0;Amateur
14.44681994;0.0146787;96.4808;195.8672;48.3304;313.0349;6.9967E-6;-3.0E-8;0;Amateur
14.44682017;0.0146747;96.4809;196.3434;46.3713;314.9546;6.2409E-6;-6.0E-8;0;Amateur
14.44682084;0.014671;96.4809;196.7138;44.8442;316.4499;8.0145E-6;1.0E-8;0;Amateur
14.44682244;0.0146611;96.481;197.7721;40.4845;320.715;1.0391E-5;1.0E-7;0;Amateur
14.44682249;0.0146605;96.481;197.825;40.2668;320.9277;1.0371E-5;1.0E-7;0;Amateur
14.44682302;0.0146563;96.481;198.1954;38.739;322.4207;1.1438E-5;1.4E-7;0;Amateur
14.44682335;0.0146517;96.481;198.6188;36.9918;324.1272;1.1434E-5;1.4E-7;0;Amateur
14.44682347;0.0146483;96.481;198.9891;35.4659;325.617;1.1168E-5;1.3E-7;0;Amateur
14.44682393;0.0146446;96.4811;199.3596;33.937;327.1089;1.1648E-5;1.5E-7;0;Amateur
14.44682469;0.0146369;96.4811;200.1533;30.6653;330.2996;1.1793E-5;1.6E-7;0;Amateur
14.44682551;0.0146286;96.4812;200.8942;27.6066;333.2802;1.2132E-5;1.7E-7;0;Amateur
14.44682591;0.0146256;96.4812;201.1588;26.5127;334.3456;1.2867E-5;2.0E-7;0;Amateur
14.44682653;0.0146193;96.4812;201.635;24.5488;336.2576;1.2101E-5;1.7E-7;0;Amateur
14.44682714;0.0146161;96.4812;201.9525;23.2334;337.5381;1.295E-5;2.0E-7;0;Amateur
14.44682793;0.0146107;96.4812;202.4287;21.2681;339.4504;1.2992E-5;2.0E-7;0;Amateur
14.44682852;0.0146069;96.4812;202.7463;19.9552;340.7276;1.3469E-5;2.2E-7;0;Amateur
14.4468295;0.0146012;96.4813;203.1696;18.2026;342.432;1.4101E-5;2.4E-7;0;Amateur
14.44683004;0.0145965;96.4813;203.54;16.6697;343.9224;1.3919E-5;2.4E-7;0;Amateur
14.44683051;0.0145914;96.4814;203.9634;14.915;345.6281;1.3034E-5;2.0E-7;0;Amateur
14.44683081;0.0145872;96.4814;204.3338;13.3825;347.1175;1.2211E-5;1.7E-7;0;Amateur
14.44683111;0.0145825;96.4814;204.7043;11.8483;348.6084;1.1039E-5;1.2E-7;0;Amateur
14.44683172;0.0145726;96.4814;205.4981;8.56;351.8031;9.4729E-6;6.0E-8;0;Amateur
14.44683222;0.0145631;96.4814;206.239;5.4891;354.786;8.3827E-6;1.0E-8;0;Amateur
14.44683298;0.0145544;96.4814;207.0327;2.2021;357.9785;7.9133E-6;-1.0E-8;0;Amateur
14.44683388;0.0145461;96.4815;207.7736;359.126;0.966;8.79E-6;3.0E-8;0;Amateur
14.44683466;0.0145371;96.4815;208.5146;356.0495;3.9541;9.3494E-6;5.0E-8;0;Amateur
14.4468352;0.0145316;96.4815;208.9379;354.2902;5.6631;1.0293E-5;8.0E-8;0;Amateur
14.44683536;0.0145275;96.4816;209.3084;352.7477;7.1616;9.9202E-6;7.0E-8;0;Amateur
14.44683611;0.0145182;96.4816;210.0494;349.6628;10.159;1.0727E-5;1.0E-7;0;Amateur
14.44683688;0.0145089;96.4817;210.8433;346.3581;13.3711;1.1385E-5;1.2E-7;0;Amateur
14.44683773;0.0145007;96.4817;211.5842;343.273;16.3709;1.2195E-5;1.6E-7;0;Amateur
14.446838;0.0144978;96.4817;211.8488;342.1702;17.4436;1.2536E-5;1.7E-7;0;Amateur
14.44683812;0.0144971;96.4817;211.9018;341.9495;17.6583;1.261E-5;1.7E-7;0;Amateur
14.44683876;0.0144916;96.4817;212.378;339.9646;19.5895;1.2708E-5;1.8E-7;0;Amateur
14.44683908;0.014489;96.4817;212.6427;338.861;20.6636;1.2759E-5;1.8E-7;0;Amateur
14.44683918;0.0144884;96.4818;212.6956;338.6402;20.8785;1.2745E-5;1.8E-7;0;Amateur
14.44684009;0.0144797;96.4818;213.4366;335.5505;23.8869;1.2267E-5;1.6E-7;0;Amateur
14.44684075;0.0144736;96.4818;213.86;333.7871;25.6048;1.1691E-5;1.3E-7;0;Amateur
14.44684156;0.0144677;96.4818;214.3364;331.801;27.5405;1.2145E-5;1.5E-7;0;Amateur
14.44684203;0.0144642;96.4818;214.6539;330.4752;28.8331;1.1767E-5;1.4E-7;0;Amateur
14.44684288;0.0144572;96.4818;215.3949;327.3804;31.8522;1.0871E-5;1.0E-7;0;Amateur
14.44684335;0.0144492;96.4819;216.1888;324.0642;35.0901;9.2424E-6;3.0E-8;0;Amateur
14.44684393;0.0144418;96.4819;216.9298;320.9667;38.1175;8.4016E-6;0;0;Amateur
14.44684424;0.014439;96.4819;217.2473;319.639;39.416;8.6273E-6;1.0E-8;0;Amateur
14.44684467;0.0144338;96.4819;217.7236;317.6478;41.3646;8.1544E-6;-1.0E-8;0;Amateur
14.44684522;0.0144318;96.4819;218.0412;316.3181;42.6665;9.1188E-6;3.0E-8;0;Amateur
14.44684574;0.0144282;96.482;218.4647;314.5462;44.4023;9.4401E-6;4.0E-8;0;Amateur
14.44684646;0.0144242;96.482;218.941;312.5523;46.3569;1.0636E-5;9.0E-8;0;Amateur
14.44684685;0.0144223;96.4821;219.1528;311.666;47.2262;1.0633E-5;9.0E-8;0;Amateur
14.44684685;0.0144216;96.4821;219.2586;311.2228;47.6611;1.0536E-5;8.0E-8;0;Amateur
14.44684753;0.0144196;96.4821;219.5762;309.8935;48.9656;1.1732E-5;1.3E-7;0;Amateur
14.44684809;0.0144159;96.4821;219.9996;308.1207;50.7065;1.1998E-5;1.4E-7;0;Amateur
14.44684866;0.0144136;96.4821;220.3701;306.5692;52.2309;1.2866E-5;1.7E-7;0;Amateur
14.44684915;0.0144107;96.4822;220.7406;305.0169;53.7572;1.3113E-5;1.8E-7;0;Amateur
14.44684968;0.0144086;96.4821;221.0581;303.6832;55.0694;1.42E-5;2.3E-7;0;Amateur
14.44685005;0.0144046;96.4822;221.5345;301.6845;57.0372;1.3727E-5;2.1E-7;0;Amateur
14.4468506;0.0144031;96.4822;221.905;300.1334;58.5653;1.4412E-5;2.3E-7;0;Amateur
14.44685098;0.014401;96.4822;222.2756;298.5789;60.0979;1.4212E-5;2.3E-7;0;Amateur
14.44685234;0.0143967;96.4823;223.0696;295.2473;63.386;1.5263E-5;2.7E-7;0;Amateur
14.44685406;0.014392;96.4824;224.1283;290.8058;67.7772;1.5457E-5;2.7E-7;0;Amateur
14.44685483;0.0143909;96.4825;224.4459;289.4728;69.0968;1.6105E-5;3.0E-7;0;Amateur
14.44685587;0.014389;96.4825;224.9753;287.2522;71.2971;1.6335E-5;3.1E-7;0;Amateur
14.44685643;0.014388;96.4825;225.3459;285.6953;72.841;1.5655E-5;2.8E-7;0;Amateur
14.44685711;0.0143865;96.4825;225.8223;283.6984;74.8232;1.5193E-5;2.6E-7;0;Amateur
14.44685774;0.0143856;96.4825;226.0869;282.5869;75.9271;1.515E-5;2.6E-7;0;Amateur
14.44685861;0.0143842;96.4826;226.5634;280.589;77.9132;1.5779E-5;2.9E-7;0;Amateur
14.44685899;0.0143835;96.4826;226.881;279.256;79.2394;1.4357E-5;2.3E-7;0;Amateur
14.44686008;0.0143826;96.4826;227.6221;276.144;82.3386;1.3513E-5;2.0E-7;0;Amateur
14.44686074;0.0143819;96.4826;227.9397;274.8108;83.6679;1.4239E-5;2.3E-7;0;Amateur
14.44686174;0.0143812;96.4826;228.4162;272.8103;85.6642;1.4472E-5;2.4E-7;0;Amateur
14.44686254;0.0143814;96.4826;228.7867;271.2541;87.2184;1.5311E-5;2.7E-7;0;Amateur
14.44686284;0.0143814;96.4826;229.1573;269.6983;88.7733;1.371E-5;2.1E-7;0;Amateur
14.44686398;0.0143819;96.4827;229.8984;266.5852;91.8885;1.3335E-5;1.9E-7;0;Amateur
14.44686404;0.0143819;96.4826;229.9513;266.3626;92.1114;1.354E-5;2.0E-7;0;Amateur
14.44686521;0.0143832;96.4827;230.6924;263.2496;95.2316;1.3888E-5;2.1E-7;0;Amateur
14.44686661;0.0143849;96.4828;231.4865;259.915;98.5791;1.5291E-5;2.7E-7;0;Amateur
14.44686796;0.0143867;96.4828;232.2276;256.8033;101.7079;1.6468E-5;3.2E-7;0;Amateur
14.4468684;0.0143876;96.4828;232.4923;255.6937;102.8247;1.6958E-5;3.4E-7;0;Amateur
14.4468687;0.014388;96.4829;232.5982;255.2494;103.2721;1.7407E-5;3.5E-7;0;Amateur
14.44686923;0.0143892;96.4829;232.9688;253.6939;104.8392;1.7213E-5;3.5E-7;0;Amateur
14.44686974;0.0143905;96.4829;233.2864;252.3619;106.1818;1.7431E-5;3.6E-7;0;Amateur
14.44687058;0.0143921;96.4829;233.7628;250.3607;108.2009;1.7312E-5;3.5E-7;0;Amateur
14.4468712;0.0143941;96.4829;234.2393;248.3623;110.219;1.6788E-5;3.3E-7;0;Amateur
14.44687175;0.0143953;96.4829;234.5039;247.2521;111.3409;1.6502E-5;3.2E-7;0;Amateur
14.44687301;0.0143995;96.4829;235.298;243.9212;114.7104;1.5838E-5;2.9E-7;0;Amateur
14.44687406;0.014404;96.4829;236.0391;240.8142;117.8581;1.471E-5;2.5E-7;0;Amateur
14.44687456;0.0144055;96.4829;236.3038;239.7052;118.9826;1.5239E-5;2.7E-7;0;Amateur
